{"fetched_at":"2026-07-22T07:10:00.509Z","source":"https://celestrak.org/NORAD/elements/gp.php?NAME=RADARSAT&FORMAT=JSON","constellation":"radarsat-2","records":[{"OBJECT_NAME":"RADARSAT-2","OBJECT_ID":"2007-061A","EPOCH":"2026-07-21T14:28:55.106112","CLASSIFICATION_TYPE":"U","MEAN_MOTION":14.29984452,"ECCENTRICITY":0.00013419,"INCLINATION":98.5791,"RA_OF_ASC_NODE":209.045,"ARG_OF_PERICENTER":85.6887,"MEAN_ANOMALY":274.4449,"EPHEMERIS_TYPE":0,"NORAD_CAT_ID":32382,"ELEMENT_SET_NO":999,"REV_AT_EPOCH":97087,"BSTAR":0.000055381932,"MEAN_MOTION_DOT":9.9e-7,"MEAN_MOTION_DDOT":0}]}
